NORAD_CAT_ID,OBJECT_NAME,OBJECT_TYPE,EPOCH,MEAN_MOTION,ECCENTRICITY,INCLINATION,RA_OF_ASC_NODE,ARG_OF_PERICENTER,MEAN_ANOMALY,BSTAR,MEAN_MOTION_DOT,MEAN_MOTION_DDOT,TLE_LINE0,TLE_LINE1,TLE_LINE2,SEMIMAJOR_AXIS,PERIOD,APOGEE,PERIGEE,DECAYED
49166.0,STARLINK-3089,PAYLOAD,2024-08-08 13:38:13,14.98325033,0.0002521,70.0017,292.1111,255.0601,105.0279,0.00019307,2.211e-05,0.0,0 STARLINK-3089,1 49166U 21082AN  24221.56821397  .00002211  00000-0  19307-3 0  9990,2 49166  70.0017 292.1111 0002521 255.0601 105.0279 14.98325033161076,6950.208,96.107,573.825,570.321,0.0
49166.0,STARLINK-3089,PAYLOAD,2024-08-08 15:14:21,14.98331751,0.0003061,70.0003,291.9419,266.3695,93.7114,0.000212,2.438e-05,0.0,0 STARLINK-3089,1 49166U 21082AN  24221.63496922  .00002438  00000-0  21200-3 0  9996,2 49166  70.0003 291.9419 0003061 266.3695  93.7114 14.98331751161083,6950.187,96.107,574.18,569.925,0.0
49166.0,STARLINK-3089,PAYLOAD,2024-08-09 13:40:14,14.98335338,0.0002834,70.001,289.5843,262.0924,97.9913,3.5339e-06,-5.1e-07,0.0,0 STARLINK-3089,1 49166U 21082AN  24222.56960969 -.00000051  00000-0  35339-5 0  9996,2 49166  70.0010 289.5843 0002834 262.0924  97.9913 14.98335338161224,6950.176,96.107,574.011,570.072,0.0
49166.0,STARLINK-3089,PAYLOAD,2024-08-10 04:05:25,14.98339712,0.0002984,69.9999,288.0674,265.2578,94.8241,0.00019063,2.183e-05,0.0,0 STARLINK-3089,1 49166U 21082AN  24223.17043743  .00002183  00000-0  19063-3 0  9997,2 49166  69.9999 288.0674 0002984 265.2578  94.8241 14.98339712161319,6950.163,96.106,574.102,569.954,0.0
49166.0,STARLINK-3089,PAYLOAD,2024-08-10 13:42:13,14.98349869,0.0002718,70.0005,287.059,261.8229,98.2622,0.00023678,2.735e-05,0.0,0 STARLINK-3089,1 49166U 21082AN  24223.57098770  .00002735  00000-0  23678-3 0  9991,2 49166  70.0005 287.0590 0002718 261.8229  98.2622 14.98349869161377,6950.131,96.106,573.885,570.107,0.0
49166.0,STARLINK-3089,PAYLOAD,2024-08-10 21:42:54,14.98340524,0.0002812,70.0001,286.2158,283.2815,76.803,1.0394e-05,3.1e-07,0.0,0 STARLINK-3089,1 49166U 21082AN  24223.90479714  .00000031  00000-0  10394-4 0  9998,2 49166  70.0001 286.2158 0002812 283.2815  76.8030 14.98340524161428,6950.16,96.106,573.98,570.071,0.0
49166.0,STARLINK-3089,PAYLOAD,2024-08-11 10:32:00,14.9832144,0.0003061,69.9989,284.8684,269.0623,91.0185,-5.1002e-05,-7.01e-06,0.0,0 STARLINK-3089,1 49166U 21082AN  24224.43889243 -.00000701  00000-0 -51002-4 0  9996,2 49166  69.9989 284.8684 0003061 269.0623  91.0185 14.98321440161509,6950.219,96.108,574.212,569.957,0.0
49166.0,STARLINK-3089,PAYLOAD,2024-08-11 21:44:56,14.98326607,0.0003077,69.9994,283.6914,273.0716,87.0091,-0.00010924,-1.396e-05,0.0,0 STARLINK-3089,1 49166U 21082AN  24224.90621253 -.00001396  00000-0 -10924-3 0  9991,2 49166  69.9994 283.6914 0003077 273.0716  87.0091 14.98326607161571,6950.203,96.107,574.207,569.93,0.0
49166.0,STARLINK-3089,PAYLOAD,2024-08-12 05:45:36,14.98331143,0.0002998,69.9991,282.8494,271.3073,88.7743,-0.00010877,-1.391e-05,0.0,0 STARLINK-3089,1 49166U 21082AN  24225.24000968 -.00001391  00000-0 -10877-3 0  9995,2 49166  69.9991 282.8494 0002998 271.3073  88.7743 14.98331143161629,6950.189,96.107,574.138,569.971,0.0
49166.0,STARLINK-3089,PAYLOAD,2024-08-12 10:34:00,14.98338371,0.0003092,70.0001,282.3448,272.54,87.5405,7.5008e-05,8.02e-06,0.0,0 STARLINK-3089,1 49166U 21082AN  24225.44028067  .00000802  00000-0  75008-4 0  9999,2 49166  70.0001 282.3448 0003092 272.5400  87.5405 14.98338371161656,6950.167,96.106,574.181,569.883,0.0
49166.0,STARLINK-3089,PAYLOAD,2024-08-13 05:47:37,14.98326011,0.0003221,69.9991,280.3239,277.6166,82.4627,0.00041466,4.858e-05,0.0,0 STARLINK-3089,1 49166U 21082AN  24226.24140862  .00004858  00000-0  41466-3 0  9991,2 49166  69.9991 280.3239 0003221 277.6166  82.4627 14.98326011161777,6950.205,96.107,574.309,569.832,0.0
49166.0,STARLINK-3089,PAYLOAD,2024-08-13 10:36:01,14.98328341,0.0002909,70.0004,279.8194,272.7174,87.3652,0.00032091,3.738e-05,0.0,0 STARLINK-3089,1 49166U 21082AN  24226.44168776  .00003738  00000-0  32091-3 0  9997,2 49166  70.0004 279.8194 0002909 272.7174  87.3652 14.98328341161809,6950.198,96.107,574.085,570.041,0.0
49166.0,STARLINK-3089,PAYLOAD,2024-08-14 04:13:31,14.98322259,0.0003072,70.0001,277.9667,276.0822,83.9987,-2.1631e-05,-3.51e-06,0.0,0 STARLINK-3089,1 49166U 21082AN  24227.17605586 -.00000351  00000-0 -21631-4 0  9992,2 49166  70.0001 277.9667 0003072 276.0822  83.9987 14.98322259161916,6950.217,96.107,574.217,569.947,0.0
49166.0,STARLINK-3089,PAYLOAD,2024-08-14 13:50:20,14.98316537,0.0002943,70.0002,276.9583,271.5105,88.5717,-0.00015442,-1.934e-05,0.0,0 STARLINK-3089,1 49166U 21082AN  24227.57662060 -.00001934  00000-0 -15442-3 0  9996,2 49166  70.0002 276.9583 0002943 271.5105  88.5717 14.98316537161973,6950.235,96.108,574.145,570.054,0.0
49166.0,STARLINK-3089,PAYLOAD,2024-08-14 20:14:52,14.9832315,0.0003191,69.9979,276.2839,275.6088,84.4707,-2.0126e-05,-3.33e-06,0.0,0 STARLINK-3089,1 49166U 21082AN  24227.84366208 -.00000333  00000-0 -20126-4 0  9999,2 49166  69.9979 276.2839 0003191 275.6088  84.4707 14.98323150162010,6950.214,96.107,574.297,569.861,0.0
49166.0,STARLINK-3089,PAYLOAD,2024-08-15 04:15:32,14.9832162,0.0003171,69.998,275.4427,273.4098,86.6698,3.8118e-05,3.62e-06,0.0,0 STARLINK-3089,1 49166U 21082AN  24228.17746326  .00000362  00000-0  38118-4 0  9999,2 49166  69.9980 275.4427 0003171 273.4098  86.6698 14.98321620162069,6950.219,96.108,574.288,569.88,0.0
49166.0,STARLINK-3089,PAYLOAD,2024-08-15 09:03:56,14.98324459,0.0003102,69.9983,274.9384,270.4899,89.5904,5.874e-05,6.08e-06,0.0,0 STARLINK-3089,1 49166U 21082AN  24228.37774155  .00000608  00000-0  58740-4 0  9998,2 49166  69.9983 274.9384 0003102 270.4899  89.5904 14.98324459162096,6950.21,96.107,574.231,569.919,0.0
49166.0,STARLINK-3089,PAYLOAD,2024-08-15 20:16:53,14.98323443,0.0003108,69.9982,273.7598,269.6084,90.4719,0.00013625,1.533e-05,0.0,0 STARLINK-3089,1 49166U 21082AN  24228.84506260  .00001533  00000-0  13625-3 0  9990,2 49166  69.9982 273.7598 0003108 269.6084  90.4719 14.98323443162166,6950.213,96.107,574.238,569.918,0.0
49166.0,STARLINK-3089,PAYLOAD,2024-08-16 04:17:33,14.98324959,0.0003139,69.9982,272.9179,268.0895,91.9904,0.00023588,2.722e-05,0.0,0 STARLINK-3089,1 49166U 21082AN  24229.17886135  .00002722  00000-0  23588-3 0  9999,2 49166  69.9982 272.9179 0003139 268.0895  91.9904 14.98324959162210,6950.208,96.107,574.255,569.892,0.0
49166.0,STARLINK-3089,PAYLOAD,2024-08-16 09:05:57,14.98326436,0.0003141,69.9982,272.4129,267.9161,92.1639,0.000255,2.951e-05,0.0,0 STARLINK-3089,1 49166U 21082AN  24229.37914196  .00002951  00000-0  25500-3 0  9990,2 49166  69.9982 272.4129 0003141 267.9161  92.1639 14.98326436162240,6950.204,96.107,574.252,569.886,0.0
49166.0,STARLINK-3089,PAYLOAD,2024-08-16 21:55:01,14.98335856,0.000314,69.9982,271.0662,267.7649,92.315,0.00028791,3.344e-05,0.0,0 STARLINK-3089,1 49166U 21082AN  24229.91321665  .00003344  00000-0  28791-3 0  9995,2 49166  69.9982 271.0662 0003140 267.7649  92.3150 14.98335856162320,6950.175,96.107,574.222,569.857,0.0
49166.0,STARLINK-3089,PAYLOAD,2024-08-17 05:55:41,14.98340795,0.000312,69.9983,270.2247,267.1512,92.929,0.00030144,3.507e-05,0.0,0 STARLINK-3089,1 49166U 21082AN  24230.24701386  .00003507  00000-0  30144-3 0  9991,2 49166  69.9983 270.2247 0003120 267.1512  92.9290 14.98340795162376,6950.16,96.106,574.193,569.856,0.0
49166.0,STARLINK-3089,PAYLOAD,2024-08-17 12:20:13,14.98348124,0.000314,69.9995,269.5515,268.2193,91.8607,0.0003806,4.453e-05,0.0,0 STARLINK-3089,1 49166U 21082AN  24230.51405042  .00004453  00000-0  38060-3 0  9997,2 49166  69.9995 269.5515 0003140 268.2193  91.8607 14.98348124162416,6950.137,96.106,574.184,569.82,0.0
49166.0,STARLINK-3089,PAYLOAD,2024-08-18 04:21:34,14.98339851,0.0002921,70.0001,267.8705,264.8362,95.2464,4.2407e-05,4.13e-06,0.0,0 STARLINK-3089,1 49166U 21082AN  24231.18165004  .00000413  00000-0  42407-4 0  9995,2 49166  70.0001 267.8705 0002921 264.8362  95.2464 14.98339851162512,6950.162,96.106,574.058,569.997,0.0
49166.0,STARLINK-3089,PAYLOAD,2024-08-18 05:57:42,14.9833936,0.0002925,70.0,267.7021,264.938,95.1445,2.8116e-05,2.43e-06,0.0,0 STARLINK-3089,1 49166U 21082AN  24231.24840973  .00000243  00000-0  28116-4 0  9999,2 49166  70.0000 267.7021 0002925 264.9380  95.1445 14.98339360162520,6950.164,96.106,574.062,569.996,0.0
49166.0,STARLINK-3089,PAYLOAD,2024-08-18 12:22:15,14.98335115,0.0002856,69.999,267.0281,261.263,98.8205,2.0639e-05,1.53e-06,0.0,0 STARLINK-3089,1 49166U 21082AN  24231.51545281  .00000153  00000-0  20639-4 0  9995,2 49166  69.9990 267.0281 0002856 261.2630  98.8205 14.98335115162569,6950.177,96.107,574.027,570.057,0.0
49166.0,STARLINK-3089,PAYLOAD,2024-08-19 09:11:59,14.98332292,0.0002833,69.9988,264.8397,262.3226,97.7612,-9.7474e-05,-1.256e-05,0.0,0 STARLINK-3089,1 49166U 21082AN  24232.38333319 -.00001256  00000-0 -97474-4 0  9996,2 49166  69.9988 264.8397 0002833 262.3226  97.7612 14.98332292162694,6950.186,96.107,574.02,570.082,0.0
49166.0,STARLINK-3089,PAYLOAD,2024-08-20 04:25:36,14.98330971,0.0002918,69.9984,262.8179,269.137,90.9455,6.8633e-05,7.26e-06,0.0,0 STARLINK-3089,1 49166U 21082AN  24233.18444872  .00000726  00000-0  68633-4 0  9996,2 49166  69.9984 262.8179 0002918 269.1370  90.9455 14.98330971162811,6950.19,96.107,574.083,570.027,0.0
49166.0,STARLINK-3089,PAYLOAD,2024-08-20 12:26:16,14.98332747,0.0002884,69.9986,261.9763,269.4741,90.6088,8.6127e-05,9.35e-06,0.0,0 STARLINK-3089,1 49166U 21082AN  24233.51824706  .00000935  00000-0  86127-4 0  9991,2 49166  69.9986 261.9763 0002884 269.4741  90.6088 14.98332747162866,6950.184,96.107,574.054,570.045,0.0
49166.0,STARLINK-3089,PAYLOAD,2024-08-21 04:27:37,14.98330831,0.0003108,69.9979,260.2924,270.9518,89.1285,0.00010435,1.152e-05,0.0,0 STARLINK-3089,1 49166U 21082AN  24234.18584729  .00001152  00000-0  10435-3 0  9993,2 49166  69.9979 260.2924 0003108 270.9518  89.1285 14.98330831162963,6950.19,96.107,574.215,569.895,0.0
